CCSDS_OMM_VERS = 2.0
CREATION_DATE  = 
ORIGINATOR     = 

OBJECT_NAME    = SL-3 R/B
OBJECT_ID      = 1988-032B
CENTER_NAME    = EARTH
REF_FRAME      = TEME
TIME_SYSTEM    = UTC
MEAN_ELEMENT_THEORY = SGP/SGP4

EPOCH          = 2026-03-10T04:38:29.918112
MEAN_MOTION    = 15.19917908
ECCENTRICITY   = .0024457
INCLINATION    = 97.5196
RA_OF_ASC_NODE = 52.4425
ARG_OF_PERICENTER = 229.5819
MEAN_ANOMALY   = 130.3282

EPHEMERIS_TYPE = 0
CLASSIFICATION_TYPE = U
NORAD_CAT_ID   = 19046
ELEMENT_SET_NO = 999
REV_AT_EPOCH   = 5218
BSTAR          = .30307E-3
MEAN_MOTION_DOT = .6493E-4
MEAN_MOTION_DDOT = 0

CCSDS_OMM_VERS = 2.0
CREATION_DATE  = 
ORIGINATOR     = 

OBJECT_NAME    = SL-16 R/B
OBJECT_ID      = 1988-039B
CENTER_NAME    = EARTH
REF_FRAME      = TEME
TIME_SYSTEM    = UTC
MEAN_ELEMENT_THEORY = SGP/SGP4

EPOCH          = 2026-03-10T02:54:34.399872
MEAN_MOTION    = 14.19615448
ECCENTRICITY   = .0022815
INCLINATION    = 71.0134
RA_OF_ASC_NODE = 67.6348
ARG_OF_PERICENTER = 333.7247
MEAN_ANOMALY   = 26.2719

EPHEMERIS_TYPE = 0
CLASSIFICATION_TYPE = U
NORAD_CAT_ID   = 19120
ELEMENT_SET_NO = 999
REV_AT_EPOCH   = 95844
BSTAR          = -.22013E-5
MEAN_MOTION_DOT = -.53E-6
MEAN_MOTION_DDOT = 0

CCSDS_OMM_VERS = 2.0
CREATION_DATE  = 
ORIGINATOR     = 

OBJECT_NAME    = COSMOS 1953
OBJECT_ID      = 1988-050A
CENTER_NAME    = EARTH
REF_FRAME      = TEME
TIME_SYSTEM    = UTC
MEAN_ELEMENT_THEORY = SGP/SGP4

EPOCH          = 2026-03-10T05:09:19.764576
MEAN_MOTION    = 15.28538815
ECCENTRICITY   = .0012465
INCLINATION    = 82.5104
RA_OF_ASC_NODE = 157.7190
ARG_OF_PERICENTER = 120.7038
MEAN_ANOMALY   = 239.5431

EPHEMERIS_TYPE = 0
CLASSIFICATION_TYPE = U
NORAD_CAT_ID   = 19210
ELEMENT_SET_NO = 999
REV_AT_EPOCH   = 3786
BSTAR          = .3546E-3
MEAN_MOTION_DOT = .99E-4
MEAN_MOTION_DDOT = 0

CCSDS_OMM_VERS = 2.0
CREATION_DATE  = 
ORIGINATOR     = 

OBJECT_NAME    = SL-8 R/B
OBJECT_ID      = 1988-053B
CENTER_NAME    = EARTH
REF_FRAME      = TEME
TIME_SYSTEM    = UTC
MEAN_ELEMENT_THEORY = SGP/SGP4

EPOCH          = 2026-03-10T03:17:26.740320
MEAN_MOTION    = 14.38916031
ECCENTRICITY   = .0021432
INCLINATION    = 74.0459
RA_OF_ASC_NODE = 111.6416
ARG_OF_PERICENTER = 290.8538
MEAN_ANOMALY   = 98.8982

EPHEMERIS_TYPE = 0
CLASSIFICATION_TYPE = U
NORAD_CAT_ID   = 19257
ELEMENT_SET_NO = 999
REV_AT_EPOCH   = 97666
BSTAR          = .10093E-3
MEAN_MOTION_DOT = .285E-5
MEAN_MOTION_DDOT = 0

CCSDS_OMM_VERS = 2.0
CREATION_DATE  = 
ORIGINATOR     = 

OBJECT_NAME    = COSMOS 1975
OBJECT_ID      = 1988-093A
CENTER_NAME    = EARTH
REF_FRAME      = TEME
TIME_SYSTEM    = UTC
MEAN_ELEMENT_THEORY = SGP/SGP4

EPOCH          = 2026-03-10T02:49:30.994176
MEAN_MOTION    = 15.28077885
ECCENTRICITY   = .0012137
INCLINATION    = 82.5180
RA_OF_ASC_NODE = 117.2554
ARG_OF_PERICENTER = 162.0670
MEAN_ANOMALY   = 198.1000

EPHEMERIS_TYPE = 0
CLASSIFICATION_TYPE = U
NORAD_CAT_ID   = 19573
ELEMENT_SET_NO = 999
REV_AT_EPOCH   = 1947
BSTAR          = .2651E-3
MEAN_MOTION_DOT = .7305E-4
MEAN_MOTION_DDOT = 0

CCSDS_OMM_VERS = 2.0
CREATION_DATE  = 
ORIGINATOR     = 

OBJECT_NAME    = SL-14 R/B
OBJECT_ID      = 1988-093B
CENTER_NAME    = EARTH
REF_FRAME      = TEME
TIME_SYSTEM    = UTC
MEAN_ELEMENT_THEORY = SGP/SGP4

EPOCH          = 2026-03-09T23:59:24.302112
MEAN_MOTION    = 14.85656984
ECCENTRICITY   = .0021744
INCLINATION    = 82.5306
RA_OF_ASC_NODE = 41.7526
ARG_OF_PERICENTER = 40.5230
MEAN_ANOMALY   = 23.6778

EPHEMERIS_TYPE = 0
CLASSIFICATION_TYPE = U
NORAD_CAT_ID   = 19574
ELEMENT_SET_NO = 999
REV_AT_EPOCH   = 106
BSTAR          = .84679E-4
MEAN_MOTION_DOT = .761E-5
MEAN_MOTION_DDOT = 0

CCSDS_OMM_VERS = 2.0
CREATION_DATE  = 
ORIGINATOR     = 

OBJECT_NAME    = SL-16 R/B
OBJECT_ID      = 1988-102B
CENTER_NAME    = EARTH
REF_FRAME      = TEME
TIME_SYSTEM    = UTC
MEAN_ELEMENT_THEORY = SGP/SGP4

EPOCH          = 2026-03-10T04:29:57.412320
MEAN_MOTION    = 14.16152371
ECCENTRICITY   = .0013986
INCLINATION    = 71.0001
RA_OF_ASC_NODE = 150.4502
ARG_OF_PERICENTER = 0.9088
MEAN_ANOMALY   = 359.2058

EPHEMERIS_TYPE = 0
CLASSIFICATION_TYPE = U
NORAD_CAT_ID   = 19650
ELEMENT_SET_NO = 999
REV_AT_EPOCH   = 92696
BSTAR          = .17995E-3
MEAN_MOTION_DOT = .309E-5
MEAN_MOTION_DDOT = 0

CCSDS_OMM_VERS = 2.0
CREATION_DATE  = 
ORIGINATOR     = 

OBJECT_NAME    = INTERCOSMOS 24
OBJECT_ID      = 1989-080A
CENTER_NAME    = EARTH
REF_FRAME      = TEME
TIME_SYSTEM    = UTC
MEAN_ELEMENT_THEORY = SGP/SGP4

EPOCH          = 2026-03-10T02:53:10.344768
MEAN_MOTION    = 12.59558521
ECCENTRICITY   = .118669
INCLINATION    = 82.6026
RA_OF_ASC_NODE = 104.1239
ARG_OF_PERICENTER = 291.8200
MEAN_ANOMALY   = 56.0884

EPHEMERIS_TYPE = 0
CLASSIFICATION_TYPE = U
NORAD_CAT_ID   = 20261
ELEMENT_SET_NO = 999
REV_AT_EPOCH   = 66685
BSTAR          = .25594E-3
MEAN_MOTION_DOT = .859E-5
MEAN_MOTION_DDOT = 0

CCSDS_OMM_VERS = 2.0
CREATION_DATE  = 
ORIGINATOR     = 

OBJECT_NAME    = SL-14 R/B
OBJECT_ID      = 1989-080C
CENTER_NAME    = EARTH
REF_FRAME      = TEME
TIME_SYSTEM    = UTC
MEAN_ELEMENT_THEORY = SGP/SGP4

EPOCH          = 2026-03-10T04:42:13.476384
MEAN_MOTION    = 12.50494456
ECCENTRICITY   = .1230592
INCLINATION    = 82.5975
RA_OF_ASC_NODE = 172.8613
ARG_OF_PERICENTER = 183.5927
MEAN_ANOMALY   = 175.5669

EPHEMERIS_TYPE = 0
CLASSIFICATION_TYPE = U
NORAD_CAT_ID   = 20262
ELEMENT_SET_NO = 999
REV_AT_EPOCH   = 66021
BSTAR          = .21193E-3
MEAN_MOTION_DOT = .719E-5
MEAN_MOTION_DDOT = 0

CCSDS_OMM_VERS = 2.0
CREATION_DATE  = 
ORIGINATOR     = 

OBJECT_NAME    = DELTA 1 R/B
OBJECT_ID      = 1989-089B
CENTER_NAME    = EARTH
REF_FRAME      = TEME
TIME_SYSTEM    = UTC
MEAN_ELEMENT_THEORY = SGP/SGP4

EPOCH          = 2026-03-10T02:29:17.003328
MEAN_MOTION    = 14.50663290
ECCENTRICITY   = .0070497
INCLINATION    = 97.0705
RA_OF_ASC_NODE = 276.4765
ARG_OF_PERICENTER = 120.6902
MEAN_ANOMALY   = 240.1268

EPHEMERIS_TYPE = 0
CLASSIFICATION_TYPE = U
NORAD_CAT_ID   = 20323
ELEMENT_SET_NO = 999
REV_AT_EPOCH   = 89579
BSTAR          = .10851E-3
MEAN_MOTION_DOT = .405E-5
MEAN_MOTION_DDOT = 0

CCSDS_OMM_VERS = 2.0
CREATION_DATE  = 
ORIGINATOR     = 

OBJECT_NAME    = ARIANE 40 R/B
OBJECT_ID      = 1990-005H
CENTER_NAME    = EARTH
REF_FRAME      = TEME
TIME_SYSTEM    = UTC
MEAN_ELEMENT_THEORY = SGP/SGP4

EPOCH          = 2026-03-10T03:51:49.228416
MEAN_MOTION    = 14.39870849
ECCENTRICITY   = .0009885
INCLINATION    = 98.3083
RA_OF_ASC_NODE = 129.8085
ARG_OF_PERICENTER = 197.1358
MEAN_ANOMALY   = 162.9498

EPHEMERIS_TYPE = 0
CLASSIFICATION_TYPE = U
NORAD_CAT_ID   = 20443
ELEMENT_SET_NO = 999
REV_AT_EPOCH   = 89287
BSTAR          = .11796E-3
MEAN_MOTION_DOT = .328E-5
MEAN_MOTION_DDOT = 0

CCSDS_OMM_VERS = 2.0
CREATION_DATE  = 
ORIGINATOR     = 

OBJECT_NAME    = DELTA 2 R/B(1)
OBJECT_ID      = 1990-008B
CENTER_NAME    = EARTH
REF_FRAME      = TEME
TIME_SYSTEM    = UTC
MEAN_ELEMENT_THEORY = SGP/SGP4

EPOCH          = 2026-03-09T08:59:25.462464
MEAN_MOTION    = 15.55957726
ECCENTRICITY   = .00854397
INCLINATION    = 35.6039
RA_OF_ASC_NODE = 176.9220
ARG_OF_PERICENTER = 255.8292
MEAN_ANOMALY   = 103.2939

EPHEMERIS_TYPE = 0
CLASSIFICATION_TYPE = U
NORAD_CAT_ID   = 20453
ELEMENT_SET_NO = 999
REV_AT_EPOCH   = 92608
BSTAR          = .75711194E-3
MEAN_MOTION_DOT = .64698E-3
MEAN_MOTION_DDOT = 0

